STARLINK-31025          
1 58634U 23203S   26068.02679154 -.00001194  00000+0 -33876-4 0  9999
2 58634  42.9998  70.4447 0000593 277.9710  82.1075 15.27576528124698
LIZZIESAT-2 (LS-2)      
1 62383U 24247G   26068.49140277  .00009388  00000+0  34517-3 0  9997
2 62383  44.9909 117.0823 0004092 327.5136  32.5495 15.28222796 67716
